{
  "type": "FeatureCollection",
  "crs": {
    "type": "name",
    "properties": {
      "name": "urn:ogc:def:crs:OGC:1.3:CRS84"
    }
  },
  "features": [
    {
      "type": "Feature",
      "id": "gt-parcel-104",
      "featureType": "parcel",
      "geometry": {
        "type": "Polygon",
        "coordinates": [
          [
            [
              77.5949,
              12.971
            ],
            [
              77.5955,
              12.971
            ],
            [
              77.5955,
              12.9716
            ],
            [
              77.5949,
              12.9716
            ],
            [
              77.5949,
              12.971
            ]
          ]
        ]
      },
      "properties": {
        "source": "ground_truth",
        "sourceAssetId": "asset-gt-001",
        "surveyNumber": "104/A",
        "registeredArea_m2": 441.2,
        "ownerType": "Private",
        "verified": true
      }
    },
    {
      "type": "Feature",
      "id": "gt-parcel-105",
      "featureType": "parcel",
      "geometry": {
        "type": "Polygon",
        "coordinates": [
          [
            [
              77.5955,
              12.971
            ],
            [
              77.5962,
              12.971
            ],
            [
              77.5962,
              12.9716
            ],
            [
              77.5955,
              12.9716
            ],
            [
              77.5955,
              12.971
            ]
          ]
        ]
      },
      "properties": {
        "source": "ground_truth",
        "sourceAssetId": "asset-gt-001",
        "surveyNumber": "105/B",
        "registeredArea_m2": 514.8,
        "ownerType": "Private",
        "verified": true
      }
    }
  ]
}