{
  "type": "FeatureCollection",
  "crs": {
    "type": "name",
    "properties": {
      "name": "urn:ogc:def:crs:OGC:1.3:CRS84"
    }
  },
  "features": [
    {
      "type": "Feature",
      "id": "parcel-101",
      "featureType": "parcel",
      "geometry": {
        "type": "Polygon",
        "coordinates": [
          [
            [
              77.593,
              12.971
            ],
            [
              77.5936,
              12.971
            ],
            [
              77.5936,
              12.9716
            ],
            [
              77.593,
              12.9716
            ],
            [
              77.593,
              12.971
            ]
          ]
        ]
      },
      "properties": {
        "source": "ai",
        "sourceAssetId": "asset-ortho-001",
        "processingMode": "cv_baseline",
        "confidence": 0.94,
        "confidenceType": "heuristic",
        "status": "review",
        "edited": false,
        "verified": false,
        "verifierId": null,
        "verifiedAt": null,
        "editHistory": [],
        "area_m2": 441.2,
        "perimeter_m": 84.0,
        "land_use": "residential",
        "metricCrs": "EPSG:32643"
      }
    },
    {
      "type": "Feature",
      "id": "parcel-102",
      "featureType": "parcel",
      "geometry": {
        "type": "Polygon",
        "coordinates": [
          [
            [
              77.5936,
              12.971
            ],
            [
              77.5942,
              12.971
            ],
            [
              77.5942,
              12.9716
            ],
            [
              77.5936,
              12.9716
            ],
            [
              77.5936,
              12.971
            ]
          ]
        ]
      },
      "properties": {
        "source": "ai",
        "sourceAssetId": "asset-ortho-001",
        "processingMode": "cv_baseline",
        "confidence": 0.92,
        "confidenceType": "heuristic",
        "status": "review",
        "edited": false,
        "verified": false,
        "verifierId": null,
        "verifiedAt": null,
        "editHistory": [],
        "area_m2": 441.2,
        "perimeter_m": 84.0,
        "land_use": "residential",
        "metricCrs": "EPSG:32643"
      }
    },
    {
      "type": "Feature",
      "id": "parcel-103",
      "featureType": "parcel",
      "geometry": {
        "type": "Polygon",
        "coordinates": [
          [
            [
              77.5942,
              12.971
            ],
            [
              77.5949,
              12.971
            ],
            [
              77.5949,
              12.9716
            ],
            [
              77.5942,
              12.9716
            ],
            [
              77.5942,
              12.971
            ]
          ]
        ]
      },
      "properties": {
        "source": "ai",
        "sourceAssetId": "asset-ortho-001",
        "processingMode": "cv_baseline",
        "confidence": 0.95,
        "confidenceType": "heuristic",
        "status": "review",
        "edited": false,
        "verified": false,
        "verifierId": null,
        "verifiedAt": null,
        "editHistory": [],
        "area_m2": 514.8,
        "perimeter_m": 91.0,
        "land_use": "commercial",
        "metricCrs": "EPSG:32643"
      }
    },
    {
      "type": "Feature",
      "id": "parcel-104",
      "featureType": "parcel",
      "geometry": {
        "type": "Polygon",
        "coordinates": [
          [
            [
              77.5949,
              12.971
            ],
            [
              77.5956,
              12.971
            ],
            [
              77.5956,
              12.9716
            ],
            [
              77.5949,
              12.9716
            ],
            [
              77.5949,
              12.971
            ]
          ]
        ]
      },
      "properties": {
        "source": "ai",
        "sourceAssetId": "asset-ortho-001",
        "processingMode": "cv_baseline",
        "confidence": 0.86,
        "confidenceType": "heuristic",
        "status": "review",
        "edited": false,
        "verified": false,
        "verifierId": null,
        "verifiedAt": null,
        "editHistory": [],
        "area_m2": 514.8,
        "perimeter_m": 91.0,
        "land_use": "residential",
        "metricCrs": "EPSG:32643"
      }
    },
    {
      "type": "Feature",
      "id": "parcel-105",
      "featureType": "parcel",
      "geometry": {
        "type": "Polygon",
        "coordinates": [
          [
            [
              77.59545,
              12.971
            ],
            [
              77.5962,
              12.971
            ],
            [
              77.5962,
              12.9716
            ],
            [
              77.59545,
              12.9716
            ],
            [
              77.59545,
              12.971
            ]
          ]
        ]
      },
      "properties": {
        "source": "ai",
        "sourceAssetId": "asset-ortho-001",
        "processingMode": "cv_baseline",
        "confidence": 0.88,
        "confidenceType": "heuristic",
        "status": "review",
        "edited": false,
        "verified": false,
        "verifierId": null,
        "verifiedAt": null,
        "editHistory": [],
        "area_m2": 551.5,
        "perimeter_m": 94.0,
        "land_use": "residential",
        "metricCrs": "EPSG:32643"
      }
    },
    {
      "type": "Feature",
      "id": "parcel-106",
      "featureType": "parcel",
      "geometry": {
        "type": "Polygon",
        "coordinates": [
          [
            [
              77.593,
              12.9718
            ],
            [
              77.5937,
              12.9718
            ],
            [
              77.5937,
              12.9725
            ],
            [
              77.593,
              12.9725
            ],
            [
              77.593,
              12.9718
            ]
          ]
        ]
      },
      "properties": {
        "source": "ai",
        "sourceAssetId": "asset-ortho-001",
        "processingMode": "cv_baseline",
        "confidence": 0.93,
        "confidenceType": "heuristic",
        "status": "review",
        "edited": false,
        "verified": false,
        "verifierId": null,
        "verifiedAt": null,
        "editHistory": [],
        "area_m2": 565.0,
        "perimeter_m": 95.2,
        "land_use": "residential",
        "metricCrs": "EPSG:32643"
      }
    },
    {
      "type": "Feature",
      "id": "parcel-107",
      "featureType": "parcel",
      "geometry": {
        "type": "Polygon",
        "coordinates": [
          [
            [
              77.5937,
              12.9718
            ],
            [
              77.5945,
              12.9718
            ],
            [
              77.5945,
              12.9725
            ],
            [
              77.5937,
              12.9725
            ],
            [
              77.5937,
              12.9718
            ]
          ]
        ]
      },
      "properties": {
        "source": "ai",
        "sourceAssetId": "asset-ortho-001",
        "processingMode": "cv_baseline",
        "confidence": 0.91,
        "confidenceType": "heuristic",
        "status": "review",
        "edited": false,
        "verified": false,
        "verifierId": null,
        "verifiedAt": null,
        "editHistory": [],
        "area_m2": 646.0,
        "perimeter_m": 102.0,
        "land_use": "residential",
        "metricCrs": "EPSG:32643"
      }
    },
    {
      "type": "Feature",
      "id": "parcel-108",
      "featureType": "parcel",
      "geometry": {
        "type": "Polygon",
        "coordinates": [
          [
            [
              77.5945,
              12.9718
            ],
            [
              77.5953,
              12.9718
            ],
            [
              77.5953,
              12.9725
            ],
            [
              77.5945,
              12.9725
            ],
            [
              77.5945,
              12.9718
            ]
          ]
        ]
      },
      "properties": {
        "source": "ai",
        "sourceAssetId": "asset-ortho-001",
        "processingMode": "cv_baseline",
        "confidence": 0.9,
        "confidenceType": "heuristic",
        "status": "review",
        "edited": false,
        "verified": false,
        "verifierId": null,
        "verifiedAt": null,
        "editHistory": [],
        "area_m2": 646.0,
        "perimeter_m": 102.0,
        "land_use": "residential",
        "metricCrs": "EPSG:32643"
      }
    },
    {
      "type": "Feature",
      "id": "parcel-112",
      "featureType": "parcel",
      "geometry": {
        "type": "Polygon",
        "coordinates": [
          [
            [
              77.59368,
              12.97178
            ],
            [
              77.59371,
              12.97178
            ],
            [
              77.59371,
              12.97182
            ],
            [
              77.59368,
              12.97182
            ],
            [
              77.59368,
              12.97178
            ]
          ]
        ]
      },
      "properties": {
        "source": "ai",
        "sourceAssetId": "asset-ortho-001",
        "processingMode": "cv_baseline",
        "confidence": 0.65,
        "confidenceType": "heuristic",
        "status": "review",
        "edited": false,
        "verified": false,
        "verifierId": null,
        "verifiedAt": null,
        "editHistory": [],
        "area_m2": 1.4,
        "perimeter_m": 5.8,
        "land_use": "unclassified",
        "metricCrs": "EPSG:32643"
      }
    }
  ]
}