{
  "type": "FeatureCollection",
  "crs": {
    "type": "name",
    "properties": {
      "name": "urn:ogc:def:crs:OGC:1.3:CRS84"
    }
  },
  "metadata": {
    "projectId": "project-001",
    "projectName": "Ward 12 Survey",
    "exportedAt": "2026-09-11T15:38:22.411214Z",
    "specification": "RFC 7946",
    "geographicCrs": "EPSG:4326",
    "producer": "GeoParcel AI Cadastral Engine",
    "includedFeatureTypes": [
      "parcel",
      "building",
      "road"
    ],
    "totalFeatures": 16
  },
  "features": [
    {
      "type": "Feature",
      "id": "parcel-101",
      "featureType": "parcel",
      "geometry": {
        "type": "Polygon",
        "coordinates": [
          [
            [
              77.593,
              12.971
            ],
            [
              77.5936,
              12.971
            ],
            [
              77.5936,
              12.9716
            ],
            [
              77.593,
              12.9716
            ],
            [
              77.593,
              12.971
            ]
          ]
        ]
      },
      "properties": {
        "source": "ai",
        "sourceAssetId": "asset-ortho-001",
        "processingMode": "cv_baseline",
        "confidence": 0.94,
        "confidenceType": "heuristic",
        "status": "review",
        "edited": false,
        "verified": false,
        "verifierId": null,
        "verifiedAt": null,
        "editHistory": [],
        "area_m2": 441.2,
        "perimeter_m": 84.0,
        "land_use": "residential",
        "metricCrs": "EPSG:32643"
      }
    },
    {
      "type": "Feature",
      "id": "parcel-102",
      "featureType": "parcel",
      "geometry": {
        "type": "Polygon",
        "coordinates": [
          [
            [
              77.5936,
              12.971
            ],
            [
              77.5942,
              12.971
            ],
            [
              77.5942,
              12.9716
            ],
            [
              77.5936,
              12.9716
            ],
            [
              77.5936,
              12.971
            ]
          ]
        ]
      },
      "properties": {
        "source": "ai",
        "sourceAssetId": "asset-ortho-001",
        "processingMode": "cv_baseline",
        "confidence": 0.92,
        "confidenceType": "heuristic",
        "status": "review",
        "edited": false,
        "verified": false,
        "verifierId": null,
        "verifiedAt": null,
        "editHistory": [],
        "area_m2": 441.2,
        "perimeter_m": 84.0,
        "land_use": "residential",
        "metricCrs": "EPSG:32643"
      }
    },
    {
      "type": "Feature",
      "id": "parcel-103",
      "featureType": "parcel",
      "geometry": {
        "type": "Polygon",
        "coordinates": [
          [
            [
              77.5942,
              12.971
            ],
            [
              77.5949,
              12.971
            ],
            [
              77.5949,
              12.9716
            ],
            [
              77.5942,
              12.9716
            ],
            [
              77.5942,
              12.971
            ]
          ]
        ]
      },
      "properties": {
        "source": "ai",
        "sourceAssetId": "asset-ortho-001",
        "processingMode": "cv_baseline",
        "confidence": 0.95,
        "confidenceType": "heuristic",
        "status": "review",
        "edited": false,
        "verified": false,
        "verifierId": null,
        "verifiedAt": null,
        "editHistory": [],
        "area_m2": 514.8,
        "perimeter_m": 91.0,
        "land_use": "commercial",
        "metricCrs": "EPSG:32643"
      }
    },
    {
      "type": "Feature",
      "id": "parcel-104",
      "featureType": "parcel",
      "geometry": {
        "type": "Polygon",
        "coordinates": [
          [
            [
              77.5949,
              12.971
            ],
            [
              77.5956,
              12.971
            ],
            [
              77.5956,
              12.9716
            ],
            [
              77.5949,
              12.9716
            ],
            [
              77.5949,
              12.971
            ]
          ]
        ]
      },
      "properties": {
        "source": "ai",
        "sourceAssetId": "asset-ortho-001",
        "processingMode": "cv_baseline",
        "confidence": 0.86,
        "confidenceType": "heuristic",
        "status": "review",
        "edited": false,
        "verified": false,
        "verifierId": null,
        "verifiedAt": null,
        "editHistory": [],
        "area_m2": 514.8,
        "perimeter_m": 91.0,
        "land_use": "residential",
        "metricCrs": "EPSG:32643"
      }
    },
    {
      "type": "Feature",
      "id": "parcel-105",
      "featureType": "parcel",
      "geometry": {
        "type": "Polygon",
        "coordinates": [
          [
            [
              77.59545,
              12.971
            ],
            [
              77.5962,
              12.971
            ],
            [
              77.5962,
              12.9716
            ],
            [
              77.59545,
              12.9716
            ],
            [
              77.59545,
              12.971
            ]
          ]
        ]
      },
      "properties": {
        "source": "ai",
        "sourceAssetId": "asset-ortho-001",
        "processingMode": "cv_baseline",
        "confidence": 0.88,
        "confidenceType": "heuristic",
        "status": "review",
        "edited": false,
        "verified": false,
        "verifierId": null,
        "verifiedAt": null,
        "editHistory": [],
        "area_m2": 551.5,
        "perimeter_m": 94.0,
        "land_use": "residential",
        "metricCrs": "EPSG:32643"
      }
    },
    {
      "type": "Feature",
      "id": "parcel-106",
      "featureType": "parcel",
      "geometry": {
        "type": "Polygon",
        "coordinates": [
          [
            [
              77.593,
              12.9718
            ],
            [
              77.5937,
              12.9718
            ],
            [
              77.5937,
              12.9725
            ],
            [
              77.593,
              12.9725
            ],
            [
              77.593,
              12.9718
            ]
          ]
        ]
      },
      "properties": {
        "source": "ai",
        "sourceAssetId": "asset-ortho-001",
        "processingMode": "cv_baseline",
        "confidence": 0.93,
        "confidenceType": "heuristic",
        "status": "review",
        "edited": false,
        "verified": false,
        "verifierId": null,
        "verifiedAt": null,
        "editHistory": [],
        "area_m2": 565.0,
        "perimeter_m": 95.2,
        "land_use": "residential",
        "metricCrs": "EPSG:32643"
      }
    },
    {
      "type": "Feature",
      "id": "parcel-107",
      "featureType": "parcel",
      "geometry": {
        "type": "Polygon",
        "coordinates": [
          [
            [
              77.5937,
              12.9718
            ],
            [
              77.5945,
              12.9718
            ],
            [
              77.5945,
              12.9725
            ],
            [
              77.5937,
              12.9725
            ],
            [
              77.5937,
              12.9718
            ]
          ]
        ]
      },
      "properties": {
        "source": "ai",
        "sourceAssetId": "asset-ortho-001",
        "processingMode": "cv_baseline",
        "confidence": 0.91,
        "confidenceType": "heuristic",
        "status": "review",
        "edited": false,
        "verified": false,
        "verifierId": null,
        "verifiedAt": null,
        "editHistory": [],
        "area_m2": 646.0,
        "perimeter_m": 102.0,
        "land_use": "residential",
        "metricCrs": "EPSG:32643"
      }
    },
    {
      "type": "Feature",
      "id": "parcel-108",
      "featureType": "parcel",
      "geometry": {
        "type": "Polygon",
        "coordinates": [
          [
            [
              77.5945,
              12.9718
            ],
            [
              77.5953,
              12.9718
            ],
            [
              77.5953,
              12.9725
            ],
            [
              77.5945,
              12.9725
            ],
            [
              77.5945,
              12.9718
            ]
          ]
        ]
      },
      "properties": {
        "source": "ai",
        "sourceAssetId": "asset-ortho-001",
        "processingMode": "cv_baseline",
        "confidence": 0.9,
        "confidenceType": "heuristic",
        "status": "review",
        "edited": false,
        "verified": false,
        "verifierId": null,
        "verifiedAt": null,
        "editHistory": [],
        "area_m2": 646.0,
        "perimeter_m": 102.0,
        "land_use": "residential",
        "metricCrs": "EPSG:32643"
      }
    },
    {
      "type": "Feature",
      "id": "parcel-112",
      "featureType": "parcel",
      "geometry": {
        "type": "Polygon",
        "coordinates": [
          [
            [
              77.59368,
              12.97178
            ],
            [
              77.59371,
              12.97178
            ],
            [
              77.59371,
              12.97182
            ],
            [
              77.59368,
              12.97182
            ],
            [
              77.59368,
              12.97178
            ]
          ]
        ]
      },
      "properties": {
        "source": "ai",
        "sourceAssetId": "asset-ortho-001",
        "processingMode": "cv_baseline",
        "confidence": 0.65,
        "confidenceType": "heuristic",
        "status": "review",
        "edited": false,
        "verified": false,
        "verifierId": null,
        "verifiedAt": null,
        "editHistory": [],
        "area_m2": 1.4,
        "perimeter_m": 5.8,
        "land_use": "unclassified",
        "metricCrs": "EPSG:32643"
      }
    },
    {
      "type": "Feature",
      "id": "bldg-201",
      "featureType": "building",
      "geometry": {
        "type": "Polygon",
        "coordinates": [
          [
            [
              77.5931,
              12.9711
            ],
            [
              77.5935,
              12.9711
            ],
            [
              77.5935,
              12.9715
            ],
            [
              77.5931,
              12.9715
            ],
            [
              77.5931,
              12.9711
            ]
          ]
        ]
      },
      "properties": {
        "source": "ai",
        "sourceAssetId": "asset-ortho-001",
        "processingMode": "cv_baseline",
        "confidence": 0.93,
        "confidenceType": "heuristic",
        "status": "detected",
        "edited": false,
        "verified": false,
        "area_m2": 196.0,
        "metricCrs": "EPSG:32643"
      }
    },
    {
      "type": "Feature",
      "id": "bldg-202",
      "featureType": "building",
      "geometry": {
        "type": "Polygon",
        "coordinates": [
          [
            [
              77.5937,
              12.9711
            ],
            [
              77.5941,
              12.9711
            ],
            [
              77.5941,
              12.9715
            ],
            [
              77.5937,
              12.9715
            ],
            [
              77.5937,
              12.9711
            ]
          ]
        ]
      },
      "properties": {
        "source": "ai",
        "sourceAssetId": "asset-ortho-001",
        "processingMode": "cv_baseline",
        "confidence": 0.91,
        "confidenceType": "heuristic",
        "status": "detected",
        "edited": false,
        "verified": false,
        "area_m2": 196.0,
        "metricCrs": "EPSG:32643"
      }
    },
    {
      "type": "Feature",
      "id": "bldg-203",
      "featureType": "building",
      "geometry": {
        "type": "Polygon",
        "coordinates": [
          [
            [
              77.5943,
              12.9711
            ],
            [
              77.5948,
              12.9711
            ],
            [
              77.5948,
              12.9715
            ],
            [
              77.5943,
              12.9715
            ],
            [
              77.5943,
              12.9711
            ]
          ]
        ]
      },
      "properties": {
        "source": "ai",
        "sourceAssetId": "asset-ortho-001",
        "processingMode": "cv_baseline",
        "confidence": 0.95,
        "confidenceType": "heuristic",
        "status": "detected",
        "edited": false,
        "verified": false,
        "area_m2": 245.0,
        "metricCrs": "EPSG:32643"
      }
    },
    {
      "type": "Feature",
      "id": "bldg-204",
      "featureType": "building",
      "geometry": {
        "type": "Polygon",
        "coordinates": [
          [
            [
              77.595,
              12.9711
            ],
            [
              77.5954,
              12.9711
            ],
            [
              77.5954,
              12.9715
            ],
            [
              77.595,
              12.9715
            ],
            [
              77.595,
              12.9711
            ]
          ]
        ]
      },
      "properties": {
        "source": "ai",
        "sourceAssetId": "asset-ortho-001",
        "processingMode": "cv_baseline",
        "confidence": 0.89,
        "confidenceType": "heuristic",
        "status": "detected",
        "edited": false,
        "verified": false,
        "area_m2": 196.0,
        "metricCrs": "EPSG:32643"
      }
    },
    {
      "type": "Feature",
      "id": "bldg-205",
      "featureType": "building",
      "geometry": {
        "type": "Polygon",
        "coordinates": [
          [
            [
              77.5956,
              12.9711
            ],
            [
              77.596,
              12.9711
            ],
            [
              77.596,
              12.9715
            ],
            [
              77.5956,
              12.9715
            ],
            [
              77.5956,
              12.9711
            ]
          ]
        ]
      },
      "properties": {
        "source": "ai",
        "sourceAssetId": "asset-ortho-001",
        "processingMode": "cv_baseline",
        "confidence": 0.9,
        "confidenceType": "heuristic",
        "status": "detected",
        "edited": false,
        "verified": false,
        "area_m2": 196.0,
        "metricCrs": "EPSG:32643"
      }
    },
    {
      "type": "Feature",
      "id": "road-301",
      "featureType": "road",
      "geometry": {
        "type": "LineString",
        "coordinates": [
          [
            77.5925,
            12.9708
          ],
          [
            77.5965,
            12.9708
          ]
        ]
      },
      "properties": {
        "source": "ai",
        "sourceAssetId": "asset-ortho-001",
        "processingMode": "cv_baseline",
        "confidence": 0.91,
        "status": "detected",
        "name": "Main Access Corridor 1",
        "width_m": 8.0
      }
    },
    {
      "type": "Feature",
      "id": "road-302",
      "featureType": "road",
      "geometry": {
        "type": "LineString",
        "coordinates": [
          [
            77.5925,
            12.9717
          ],
          [
            77.5965,
            12.9717
          ]
        ]
      },
      "properties": {
        "source": "ai",
        "sourceAssetId": "asset-ortho-001",
        "processingMode": "cv_baseline",
        "confidence": 0.89,
        "status": "detected",
        "name": "Residential Access Lane 2",
        "width_m": 6.0
      }
    }
  ]
}